[{"OBJECT_NAME":"BLACKJACK ACES-3","OBJECT_ID":"2023-084U","EPOCH":"2026-03-09T22:33:28.935936","MEAN_MOTION":15.20514993,"ECCENTRICITY":0.0003219,"INCLINATION":97.6035,"RA_OF_ASC_NODE":203.4451,"ARG_OF_PERICENTER":12.8502,"MEAN_ANOMALY":347.2815,"EPHEMERIS_TYPE":0,"CLASSIFICATION_TYPE":"U","NORAD_CAT_ID":56950,"ELEMENT_SET_NO":999,"REV_AT_EPOCH":15210,"BSTAR":0.00037703275,"MEAN_MOTION_DOT":8.176e-5,"MEAN_MOTION_DDOT":0},{"OBJECT_NAME":"OBJECT AD","OBJECT_ID":"2025-313AD","EPOCH":"2026-03-09T22:39:46.024416","MEAN_MOTION":15.21252673,"ECCENTRICITY":0.00138238,"INCLINATION":97.3979,"RA_OF_ASC_NODE":145.1661,"ARG_OF_PERICENTER":2.1254,"MEAN_ANOMALY":358.0038,"EPHEMERIS_TYPE":0,"CLASSIFICATION_TYPE":"U","NORAD_CAT_ID":67275,"ELEMENT_SET_NO":999,"REV_AT_EPOCH":1085,"BSTAR":0.00040975515,"MEAN_MOTION_DOT":9.111e-5,"MEAN_MOTION_DDOT":0}]
